{"fetched_at":"2026-07-11T09:24:23.728Z","source":"https://celestrak.org/NORAD/elements/gp.php?NAME=ICEYE&FORMAT=JSON","constellation":"iceye","records":[{"OBJECT_NAME":"ICEYE-X2","OBJECT_ID":"2018-099AU","EPOCH":"2026-07-11T04:53:36.019104","CLASSIFICATION_TYPE":"U","MEAN_MOTION":15.18013542,"ECCENTRICITY":0.0009401,"INCLINATION":97.4352,"RA_OF_ASC_NODE":245.6239,"ARG_OF_PERICENTER":209.3585,"MEAN_ANOMALY":150.7121,"EPHEMERIS_TYPE":0,"NORAD_CAT_ID":43800,"ELEMENT_SET_NO":999,"REV_AT_EPOCH":41646,"BSTAR":0.00020749,"MEAN_MOTION_DOT":0.00004157,"MEAN_MOTION_DDOT":0},{"OBJECT_NAME":"ICEYE-X4","OBJECT_ID":"2019-038D","EPOCH":"2026-07-11T04:58:09.768864","CLASSIFICATION_TYPE":"U","MEAN_MOTION":15.29825179,"ECCENTRICITY":0.0012467,"INCLINATION":97.8754,"RA_OF_ASC_NODE":226.5389,"ARG_OF_PERICENTER":212.5052,"MEAN_ANOMALY":147.542,"EPHEMERIS_TYPE":0,"NORAD_CAT_ID":44390,"ELEMENT_SET_NO":999,"REV_AT_EPOCH":38547,"BSTAR":0.00024938,"MEAN_MOTION_DOT":0.00007135,"MEAN_MOTION_DDOT":0},{"OBJECT_NAME":"ICEYE-X7","OBJECT_ID":"2020-068L","EPOCH":"2026-07-11T04:21:08.434368","CLASSIFICATION_TYPE":"U","MEAN_MOTION":15.32041226,"ECCENTRICITY":0.0005648,"INCLINATION":97.7498,"RA_OF_ASC_NODE":159.808,"ARG_OF_PERICENTER":230.444,"MEAN_ANOMALY":129.6302,"EPHEMERIS_TYPE":0,"NORAD_CAT_ID":46496,"ELEMENT_SET_NO":999,"REV_AT_EPOCH":31846,"BSTAR":0.00021749,"MEAN_MOTION_DOT":0.00006646,"MEAN_MOTION_DDOT":0},{"OBJECT_NAME":"ICEYE-X6","OBJECT_ID":"2020-068M","EPOCH":"2026-07-11T04:47:16.384416","CLASSIFICATION_TYPE":"U","MEAN_MOTION":15.04651151,"ECCENTRICITY":0.0007563,"INCLINATION":98.0981,"RA_OF_ASC_NODE":187.0211,"ARG_OF_PERICENTER":21.4955,"MEAN_ANOMALY":338.6586,"EPHEMERIS_TYPE":0,"NORAD_CAT_ID":46497,"ELEMENT_SET_NO":999,"REV_AT_EPOCH":31684,"BSTAR":0.00015805,"MEAN_MOTION_DOT":0.00002155,"MEAN_MOTION_DDOT":0},{"OBJECT_NAME":"ICEYE-X21","OBJECT_ID":"2023-001AS","EPOCH":"2026-06-24T05:11:18.420288","CLASSIFICATION_TYPE":"U","MEAN_MOTION":16.24069885,"ECCENTRICITY":0.00123774,"INCLINATION":97.3001,"RA_OF_ASC_NODE":262.6152,"ARG_OF_PERICENTER":285.9702,"MEAN_ANOMALY":74.0225,"EPHEMERIS_TYPE":0,"NORAD_CAT_ID":55049,"ELEMENT_SET_NO":999,"REV_AT_EPOCH":19475,"BSTAR":0.000602142,"MEAN_MOTION_DOT":0.01585954,"MEAN_MOTION_DDOT":0.000002396838},{"OBJECT_NAME":"ICEYE-X25","OBJECT_ID":"2023-084AH","EPOCH":"2026-07-11T05:14:28.377600","CLASSIFICATION_TYPE":"U","MEAN_MOTION":15.62564041,"ECCENTRICITY":0.0004096,"INCLINATION":97.5899,"RA_OF_ASC_NODE":340.1652,"ARG_OF_PERICENTER":197.9045,"MEAN_ANOMALY":162.2069,"EPHEMERIS_TYPE":0,"NORAD_CAT_ID":56963,"ELEMENT_SET_NO":999,"REV_AT_EPOCH":17172,"BSTAR":0.0003632,"MEAN_MOTION_DOT":0.00032337,"MEAN_MOTION_DDOT":0},{"OBJECT_NAME":"ICEYE-X31","OBJECT_ID":"2023-174AJ","EPOCH":"2026-07-11T04:42:25.983648","CLASSIFICATION_TYPE":"U","MEAN_MOTION":15.35090881,"ECCENTRICITY":0.000232,"INCLINATION":97.3778,"RA_OF_ASC_NODE":267.9407,"ARG_OF_PERICENTER":197.8925,"MEAN_ANOMALY":162.2237,"EPHEMERIS_TYPE":0,"NORAD_CAT_ID":58288,"ELEMENT_SET_NO":999,"REV_AT_EPOCH":14843,"BSTAR":0.00028498,"MEAN_MOTION_DOT":0.00009626,"MEAN_MOTION_DDOT":0},{"OBJECT_NAME":"ICEYE-X34","OBJECT_ID":"2023-174AQ","EPOCH":"2026-07-10T20:41:03.090048","CLASSIFICATION_TYPE":"U","MEAN_MOTION":15.70290775,"ECCENTRICITY":0.0001525,"INCLINATION":97.3865,"RA_OF_ASC_NODE":284.2797,"ARG_OF_PERICENTER":199.888,"MEAN_ANOMALY":160.2323,"EPHEMERIS_TYPE":0,"NORAD_CAT_ID":58294,"ELEMENT_SET_NO":999,"REV_AT_EPOCH":14945,"BSTAR":0.00091614,"MEAN_MOTION_DOT":0.00112439,"MEAN_MOTION_DDOT":0},{"OBJECT_NAME":"ICEYE-X35","OBJECT_ID":"2023-174AY","EPOCH":"2026-07-11T04:49:16.898592","CLASSIFICATION_TYPE":"U","MEAN_MOTION":15.54860118,"ECCENTRICITY":0.0008159,"INCLINATION":97.3787,"RA_OF_ASC_NODE":277.4743,"ARG_OF_PERICENTER":120.2408,"MEAN_ANOMALY":239.9655,"EPHEMERIS_TYPE":0,"NORAD_CAT_ID":58302,"ELEMENT_SET_NO":999,"REV_AT_EPOCH":14907,"BSTAR":0.00054566,"MEAN_MOTION_DOT":0.00036454,"MEAN_MOTION_DDOT":0},{"OBJECT_NAME":"ICEYE-X38","OBJECT_ID":"2024-043C","EPOCH":"2026-07-11T04:35:35.595744","CLASSIFICATION_TYPE":"U","MEAN_MOTION":15.13070319,"ECCENTRICITY":0.0002699,"INCLINATION":97.8425,"RA_OF_ASC_NODE":336.6052,"ARG_OF_PERICENTER":32.5325,"MEAN_ANOMALY":327.6071,"EPHEMERIS_TYPE":0,"NORAD_CAT_ID":59100,"ELEMENT_SET_NO":999,"REV_AT_EPOCH":11530,"BSTAR":0.00014849,"MEAN_MOTION_DOT":0.00002556,"MEAN_MOTION_DDOT":0},{"OBJECT_NAME":"ICEYE-X37","OBJECT_ID":"2024-043E","EPOCH":"2026-07-11T03:55:04.519200","CLASSIFICATION_TYPE":"U","MEAN_MOTION":15.06277469,"ECCENTRICITY":0.0013624,"INCLINATION":97.8333,"RA_OF_ASC_NODE":329.5467,"ARG_OF_PERICENTER":289.3935,"MEAN_ANOMALY":70.5818,"EPHEMERIS_TYPE":0,"NORAD_CAT_ID":59102,"ELEMENT_SET_NO":999,"REV_AT_EPOCH":12869,"BSTAR":0.00012006,"MEAN_MOTION_DOT":0.000017,"MEAN_MOTION_DDOT":0},{"OBJECT_NAME":"ICEYE-X36","OBJECT_ID":"2024-043F","EPOCH":"2026-07-11T03:40:33.187296","CLASSIFICATION_TYPE":"U","MEAN_MOTION":15.07213172,"ECCENTRICITY":0.0004984,"INCLINATION":97.8387,"RA_OF_ASC_NODE":330.6571,"ARG_OF_PERICENTER":229.3074,"MEAN_ANOMALY":130.772,"EPHEMERIS_TYPE":0,"NORAD_CAT_ID":59103,"ELEMENT_SET_NO":999,"REV_AT_EPOCH":12875,"BSTAR":0.00014463,"MEAN_MOTION_DOT":0.00002112,"MEAN_MOTION_DDOT":0},{"OBJECT_NAME":"ICEYE-X43","OBJECT_ID":"2024-149BZ","EPOCH":"2026-07-11T01:09:41.005728","CLASSIFICATION_TYPE":"U","MEAN_MOTION":14.99779263,"ECCENTRICITY":0.0006774,"INCLINATION":97.6814,"RA_OF_ASC_NODE":268.6928,"ARG_OF_PERICENTER":6.5508,"MEAN_ANOMALY":353.5803,"EPHEMERIS_TYPE":0,"NORAD_CAT_ID":60539,"ELEMENT_SET_NO":999,"REV_AT_EPOCH":10369,"BSTAR":0.00010567,"MEAN_MOTION_DOT":0.00001248,"MEAN_MOTION_DDOT":0},{"OBJECT_NAME":"ICEYE-X39","OBJECT_ID":"2024-149CG","EPOCH":"2026-07-08T18:11:05.756064","CLASSIFICATION_TYPE":"U","MEAN_MOTION":15.00041901,"ECCENTRICITY":0.00069867,"INCLINATION":97.677,"RA_OF_ASC_NODE":266.4889,"ARG_OF_PERICENTER":63.7023,"MEAN_ANOMALY":296.4918,"EPHEMERIS_TYPE":0,"NORAD_CAT_ID":60546,"ELEMENT_SET_NO":999,"REV_AT_EPOCH":10335,"BSTAR":0.00022606183,"MEAN_MOTION_DOT":0.00002756,"MEAN_MOTION_DDOT":0},{"OBJECT_NAME":"ICEYE-X33","OBJECT_ID":"2024-149CJ","EPOCH":"2026-07-09T20:04:20.713440","CLASSIFICATION_TYPE":"U","MEAN_MOTION":15.00937312,"ECCENTRICITY":0.0001952,"INCLINATION":97.7345,"RA_OF_ASC_NODE":269.8614,"ARG_OF_PERICENTER":73.3938,"MEAN_ANOMALY":286.75,"EPHEMERIS_TYPE":0,"NORAD_CAT_ID":60548,"ELEMENT_SET_NO":999,"REV_AT_EPOCH":10360,"BSTAR":0.00025134873,"MEAN_MOTION_DOT":0.00003143,"MEAN_MOTION_DDOT":0}]}
