ICEYE-X2                
1 43800U 18099AU  26192.20388911  .00004157  00000+0  20749-3 0  9995
2 43800  97.4352 245.6239 0009401 209.3585 150.7121 15.18013542416462
ICEYE-X4                
1 44390U 19038D   26192.20705751  .00007135  00000+0  24938-3 0  9992
2 44390  97.8754 226.5389 0012467 212.5052 147.5420 15.29825179385473
ICEYE-X7                
1 46496U 20068L   26192.18134762  .00006646  00000+0  21749-3 0  9994
2 46496  97.7498 159.8080 0005648 230.4440 129.6302 15.32041226318467
ICEYE-X6                
1 46497U 20068M   26192.19949519  .00002155  00000+0  15805-3 0  9997
2 46497  98.0981 187.0211 0007563  21.4955 338.6586 15.04651151316844
ICEYE-X21               
1 55049U 23001AS  26175.21618542  .01585954  23968-5  60214-3 0  9995
2 55049  97.3001 262.6152 0012377 285.9702  74.0225 16.24069885194757
ICEYE-X25               
1 56963U 23084AH  26192.21838400  .00032337  00000+0  36320-3 0  9996
2 56963  97.5899 340.1652 0004096 197.9045 162.2069 15.62564041171721
ICEYE-X31               
1 58288U 23174AJ  26192.19613407  .00009626  00000+0  28498-3 0  9995
2 58288  97.3778 267.9407 0002320 197.8925 162.2237 15.35090881148430
ICEYE-X34               
1 58294U 23174AQ  26191.86184132  .00112439  00000+0  91614-3 0  9990
2 58294  97.3865 284.2797 0001525 199.8880 160.2323 15.70290775149456
ICEYE-X35               
1 58302U 23174AY  26192.20089003  .00036454  00000+0  54566-3 0  9997
2 58302  97.3787 277.4743 0008159 120.2408 239.9655 15.54860118149074
ICEYE-X38               
1 59100U 24043C   26192.19138421  .00002556  00000+0  14849-3 0  9993
2 59100  97.8425 336.6052 0002699  32.5325 327.6071 15.13070319115309
ICEYE-X37               
1 59102U 24043E   26192.16324675  .00001700  00000+0  12006-3 0  9993
2 59102  97.8333 329.5467 0013624 289.3935  70.5818 15.06277469128695
ICEYE-X36               
1 59103U 24043F   26192.15316189  .00002112  00000+0  14463-3 0  9991
2 59103  97.8387 330.6571 0004984 229.3074 130.7720 15.07213172128751
ICEYE-X43               
1 60539U 24149BZ  26192.04839127  .00001248  00000+0  10567-3 0  9993
2 60539  97.6814 268.6928 0006774   6.5508 353.5803 14.99779263103692
ICEYE-X39               
1 60546U 24149CG  26189.75770551  .00002756  00000+0  22606-3 0  9992
2 60546  97.6770 266.4889 0006986  63.7023 296.4918 15.00041901103354
ICEYE-X33               
1 60548U 24149CJ  26190.83635085  .00003143  00000+0  25135-3 0  9998
2 60548  97.7345 269.8614 0001952  73.3938 286.7500 15.00937312103605
